[{"OBJECT_NAME":"ONEWEB-0675","OBJECT_ID":"2023-029AQ","EPOCH":"2026-01-04T06:59:31.746624","MEAN_MOTION":13.19725571,"ECCENTRICITY":0.00014891,"INCLINATION":87.9208,"RA_OF_ASC_NODE":337.5972,"ARG_OF_PERICENTER":88.1557,"MEAN_ANOMALY":271.9746,"EPHEMERIS_TYPE":0,"CLASSIFICATION_TYPE":"U","NORAD_CAT_ID":55834,"ELEMENT_SET_NO":999,"REV_AT_EPOCH":13730,"BSTAR":-0.00010638103,"MEAN_MOTION_DOT":-3.0e-7,"MEAN_MOTION_DDOT":0},{"OBJECT_NAME":"ONEWEB-0720","OBJECT_ID":"2023-029AR","EPOCH":"2026-01-03T21:42:16.017984","MEAN_MOTION":13.19724915,"ECCENTRICITY":0.0001634,"INCLINATION":87.9207,"RA_OF_ASC_NODE":337.6729,"ARG_OF_PERICENTER":70.9902,"MEAN_ANOMALY":289.1408,"EPHEMERIS_TYPE":0,"CLASSIFICATION_TYPE":"U","NORAD_CAT_ID":55835,"ELEMENT_SET_NO":999,"REV_AT_EPOCH":13717,"BSTAR":-0.00029523,"MEAN_MOTION_DOT":-1.05e-6,"MEAN_MOTION_DDOT":0},{"OBJECT_NAME":"ONEWEB-0537","OBJECT_ID":"2023-043A","EPOCH":"2026-01-04T06:27:35.152704","MEAN_MOTION":13.16594268,"ECCENTRICITY":0.00014111,"INCLINATION":87.9042,"RA_OF_ASC_NODE":261.4099,"ARG_OF_PERICENTER":81.6713,"MEAN_ANOMALY":278.4578,"EPHEMERIS_TYPE":0,"CLASSIFICATION_TYPE":"U","NORAD_CAT_ID":56046,"ELEMENT_SET_NO":999,"REV_AT_EPOCH":13739,"BSTAR":-0.00012943436,"MEAN_MOTION_DOT":-3.7e-7,"MEAN_MOTION_DDOT":0},{"OBJECT_NAME":"ONEWEB-0538","OBJECT_ID":"2023-043B","EPOCH":"2026-01-04T06:18:27.293760","MEAN_MOTION":13.16593856,"ECCENTRICITY":0.00012238,"INCLINATION":87.9041,"RA_OF_ASC_NODE":261.4144,"ARG_OF_PERICENTER":71.0572,"MEAN_ANOMALY":289.0691,"EPHEMERIS_TYPE":0,"CLASSIFICATION_TYPE":"U","NORAD_CAT_ID":56047,"ELEMENT_SET_NO":999,"REV_AT_EPOCH":13740,"BSTAR":-0.00010138133,"MEAN_MOTION_DOT":-2.6e-7,"MEAN_MOTION_DDOT":0},{"OBJECT_NAME":"ONEWEB-0546","OBJECT_ID":"2023-043C","EPOCH":"2026-01-04T06:00:13.217472","MEAN_MOTION":13.16593934,"ECCENTRICITY":0.00015125,"INCLINATION":87.905,"RA_OF_ASC_NODE":261.411,"ARG_OF_PERICENTER":101.1863,"MEAN_ANOMALY":258.9439,"EPHEMERIS_TYPE":0,"CLASSIFICATION_TYPE":"U","NORAD_CAT_ID":56048,"ELEMENT_SET_NO":999,"REV_AT_EPOCH":13739,"BSTAR":0.0001696754,"MEAN_MOTION_DOT":7.8e-7,"MEAN_MOTION_DDOT":0},{"OBJECT_NAME":"ONEWEB-0547","OBJECT_ID":"2023-043D","EPOCH":"2026-01-04T06:58:17.337216","MEAN_MOTION":13.21828509,"ECCENTRICITY":0.0001527,"INCLINATION":87.9227,"RA_OF_ASC_NODE":276.6654,"ARG_OF_PERICENTER":69.7019,"MEAN_ANOMALY":290.4279,"EPHEMERIS_TYPE":0,"CLASSIFICATION_TYPE":"U","NORAD_CAT_ID":56049,"ELEMENT_SET_NO":999,"REV_AT_EPOCH":13657,"BSTAR":-3.5194289e-5,"MEAN_MOTION_DOT":-2.0e-8,"MEAN_MOTION_DDOT":0},{"OBJECT_NAME":"ONEWEB-0548","OBJECT_ID":"2023-043E","EPOCH":"2026-01-04T06:35:32.418528","MEAN_MOTION":13.165942,"ECCENTRICITY":0.00020032,"INCLINATION":87.9037,"RA_OF_ASC_NODE":261.4098,"ARG_OF_PERICENTER":74.1597,"MEAN_ANOMALY":285.9754,"EPHEMERIS_TYPE":0,"CLASSIFICATION_TYPE":"U","NORAD_CAT_ID":56050,"ELEMENT_SET_NO":999,"REV_AT_EPOCH":13739,"BSTAR":-0.00066273433,"MEAN_MOTION_DOT":-2.4e-6,"MEAN_MOTION_DDOT":0},{"OBJECT_NAME":"ONEWEB-0549","OBJECT_ID":"2023-043F","EPOCH":"2026-01-04T06:47:37.189248","MEAN_MOTION":13.21826678,"ECCENTRICITY":0.00014408,"INCLINATION":87.9221,"RA_OF_ASC_NODE":276.6804,"ARG_OF_PERICENTER":66.8115,"MEAN_ANOMALY":293.317,"EPHEMERIS_TYPE":0,"CLASSIFICATION_TYPE":"U","NORAD_CAT_ID":56051,"ELEMENT_SET_NO":999,"REV_AT_EPOCH":13657,"BSTAR":-0.00063234486,"MEAN_MOTION_DOT":-2.48e-6,"MEAN_MOTION_DDOT":0},{"OBJECT_NAME":"ONEWEB-0550","OBJECT_ID":"2023-043G","EPOCH":"2026-01-04T06:28:40.985184","MEAN_MOTION":13.2182571,"ECCENTRICITY":0.00016946,"INCLINATION":87.9225,"RA_OF_ASC_NODE":276.6783,"ARG_OF_PERICENTER":76.2125,"MEAN_ANOMALY":283.9197,"EPHEMERIS_TYPE":0,"CLASSIFICATION_TYPE":"U","NORAD_CAT_ID":56052,"ELEMENT_SET_NO":999,"REV_AT_EPOCH":13657,"BSTAR":-0.00010761968,"MEAN_MOTION_DOT":-3.1e-7,"MEAN_MOTION_DDOT":0},{"OBJECT_NAME":"ONEWEB-0551","OBJECT_ID":"2023-043H","EPOCH":"2026-01-04T06:02:26.552544","MEAN_MOTION":13.15548477,"ECCENTRICITY":0.00015869,"INCLINATION":87.9004,"RA_OF_ASC_NODE":291.9499,"ARG_OF_PERICENTER":65.4631,"MEAN_ANOMALY":294.6665,"EPHEMERIS_TYPE":0,"CLASSIFICATION_TYPE":"U","NORAD_CAT_ID":56053,"ELEMENT_SET_NO":999,"REV_AT_EPOCH":13484,"BSTAR":0.00094857446,"MEAN_MOTION_DOT":3.7e-6,"MEAN_MOTION_DDOT":0},{"OBJECT_NAME":"ONEWEB-0552","OBJECT_ID":"2023-043J","EPOCH":"2026-01-04T06:21:32.205312","MEAN_MOTION":13.2182607,"ECCENTRICITY":0.00016612,"INCLINATION":87.9226,"RA_OF_ASC_NODE":276.6878,"ARG_OF_PERICENTER":64.1669,"MEAN_ANOMALY":295.9636,"EPHEMERIS_TYPE":0,"CLASSIFICATION_TYPE":"U","NORAD_CAT_ID":56054,"ELEMENT_SET_NO":999,"REV_AT_EPOCH":13657,"BSTAR":-0.00081398128,"MEAN_MOTION_DOT":-3.23e-6,"MEAN_MOTION_DDOT":0},{"OBJECT_NAME":"ONEWEB-0553","OBJECT_ID":"2023-043K","EPOCH":"2026-01-04T06:09:20.728224","MEAN_MOTION":13.16596196,"ECCENTRICITY":0.00016318,"INCLINATION":87.9041,"RA_OF_ASC_NODE":261.4152,"ARG_OF_PERICENTER":86.5812,"MEAN_ANOMALY":273.5505,"EPHEMERIS_TYPE":0,"CLASSIFICATION_TYPE":"U","NORAD_CAT_ID":56055,"ELEMENT_SET_NO":999,"REV_AT_EPOCH":13740,"BSTAR":-9.8022219e-5,"MEAN_MOTION_DOT":-2.5e-7,"MEAN_MOTION_DDOT":0},{"OBJECT_NAME":"ONEWEB-0554","OBJECT_ID":"2023-043L","EPOCH":"2026-01-04T04:01:40.081728","MEAN_MOTION":13.16595019,"ECCENTRICITY":0.00017921,"INCLINATION":87.9038,"RA_OF_ASC_NODE":261.4447,"ARG_OF_PERICENTER":75.3641,"MEAN_ANOMALY":284.7688,"EPHEMERIS_TYPE":0,"CLASSIFICATION_TYPE":"U","NORAD_CAT_ID":56056,"ELEMENT_SET_NO":999,"REV_AT_EPOCH":13737,"BSTAR":0.00043534038,"MEAN_MOTION_DOT":1.79e-6,"MEAN_MOTION_DDOT":0},{"OBJECT_NAME":"ONEWEB-0555","OBJECT_ID":"2023-043M","EPOCH":"2026-01-04T04:56:23.374176","MEAN_MOTION":13.16594102,"ECCENTRICITY":0.0001553,"INCLINATION":87.9042,"RA_OF_ASC_NODE":261.4198,"ARG_OF_PERICENTER":95.9135,"MEAN_ANOMALY":264.2173,"EPHEMERIS_TYPE":0,"CLASSIFICATION_TYPE":"U","NORAD_CAT_ID":56057,"ELEMENT_SET_NO":999,"REV_AT_EPOCH":13738,"BSTAR":0.00012734984,"MEAN_MOTION_DOT":6.2e-7,"MEAN_MOTION_DDOT":0},{"OBJECT_NAME":"ONEWEB-0557","OBJECT_ID":"2023-043N","EPOCH":"2026-01-04T05:16:54.912000","MEAN_MOTION":13.16593535,"ECCENTRICITY":0.00026908,"INCLINATION":87.9039,"RA_OF_ASC_NODE":261.4296,"ARG_OF_PERICENTER":91.4404,"MEAN_ANOMALY":268.7035,"EPHEMERIS_TYPE":0,"CLASSIFICATION_TYPE":"U","NORAD_CAT_ID":56058,"ELEMENT_SET_NO":999,"REV_AT_EPOCH":13738,"BSTAR":4.9066394e-5,"MEAN_MOTION_DOT":3.2e-7,"MEAN_MOTION_DDOT":0},{"OBJECT_NAME":"ONEWEB-0558","OBJECT_ID":"2023-043P","EPOCH":"2026-01-04T06:12:06.069312","MEAN_MOTION":13.21828859,"ECCENTRICITY":0.00012287,"INCLINATION":87.9225,"RA_OF_ASC_NODE":276.6819,"ARG_OF_PERICENTER":63.5643,"MEAN_ANOMALY":296.5617,"EPHEMERIS_TYPE":0,"CLASSIFICATION_TYPE":"U","NORAD_CAT_ID":56059,"ELEMENT_SET_NO":999,"REV_AT_EPOCH":13658,"BSTAR":0.0017105716,"MEAN_MOTION_DOT":7.2e-6,"MEAN_MOTION_DDOT":0}]
