ONEWEB-0675             
1 55834U 23029AQ  26004.29133966 -.00000030  00000+0 -10638-3 0  9997
2 55834  87.9208 337.5972 0001489  88.1557 271.9746 13.19725571137304
ONEWEB-0720             
1 55835U 23029AR  26003.90435206 -.00000105  00000+0 -29523-3 0  9993
2 55835  87.9207 337.6729 0001634  70.9902 289.1408 13.19724915137172
ONEWEB-0537             
1 56046U 23043A   26004.26915686 -.00000037  00000+0 -12943-3 0  9991
2 56046  87.9042 261.4099 0001411  81.6713 278.4578 13.16594268137396
ONEWEB-0538             
1 56047U 23043B   26004.26281590 -.00000026  00000+0 -10138-3 0  9994
2 56047  87.9041 261.4144 0001223  71.0572 289.0691 13.16593856137402
ONEWEB-0546             
1 56048U 23043C   26004.25015298  .00000078  00000+0  16968-3 0  9996
2 56048  87.9050 261.4110 0001512 101.1863 258.9439 13.16593934137395
ONEWEB-0547             
1 56049U 23043D   26004.29047844 -.00000002  00000+0 -35194-4 0  9995
2 56049  87.9227 276.6654 0001527  69.7019 290.4279 13.21828509136578
ONEWEB-0548             
1 56050U 23043E   26004.27468077 -.00000240  00000+0 -66273-3 0  9995
2 56050  87.9037 261.4098 0002003  74.1597 285.9754 13.16594200137394
ONEWEB-0549             
1 56051U 23043F   26004.28306932 -.00000248  00000+0 -63234-3 0  9990
2 56051  87.9221 276.6804 0001440  66.8115 293.3170 13.21826678136578
ONEWEB-0550             
1 56052U 23043G   26004.26991881 -.00000031  00000+0 -10762-3 0  9990
2 56052  87.9225 276.6783 0001694  76.2125 283.9197 13.21825710136576
ONEWEB-0551             
1 56053U 23043H   26004.25169621  .00000370  00000+0  94857-3 0  9990
2 56053  87.9004 291.9499 0001586  65.4631 294.6665 13.15548477134840
ONEWEB-0552             
1 56054U 23043J   26004.26495608 -.00000323  00000+0 -81398-3 0  9995
2 56054  87.9226 276.6878 0001661  64.1669 295.9636 13.21826070136578
ONEWEB-0553             
1 56055U 23043K   26004.25648991 -.00000025  00000+0 -98022-4 0  9992
2 56055  87.9041 261.4152 0001631  86.5812 273.5505 13.16596196137403
ONEWEB-0554             
1 56056U 23043L   26004.16782502  .00000179  00000+0  43534-3 0  9995
2 56056  87.9038 261.4447 0001792  75.3641 284.7688 13.16595019137376
ONEWEB-0555             
1 56057U 23043M   26004.20582609  .00000062  00000+0  12735-3 0  9997
2 56057  87.9042 261.4198 0001553  95.9135 264.2173 13.16594102137381
ONEWEB-0557             
1 56058U 23043N   26004.22008000  .00000032  00000+0  49066-4 0  9993
2 56058  87.9039 261.4296 0002690  91.4404 268.7035 13.16593535137385
ONEWEB-0558             
1 56059U 23043P   26004.25840358  .00000720  00000+0  17106-2 0  9999
2 56059  87.9225 276.6819 0001228  63.5643 296.5617 13.21828859136585
